SENTINEL-6              
1 46984U 20086A   24025.72807398 -.00000075  00000+0 -58767-4 0  9994
2 46984  66.0412 149.2360 0007766 270.5768  89.4357 12.80930230148454
